{"type": "FeatureCollection", "features": [ {"type": "Feature", "properties": {"norad_id": 66748, "name": "TRANSPORTER-15CL", "group": "last-30-days", "lat": -75.83913010119309, "lon": -138.37341543043647, "alt_km": 516.2284971513445, "timestamp": "2025-12-27T06:41:29.619052+00:00", "meta": {"OBJECT_NAME": "TRANSPORTER-15CL", "OBJECT_ID": "2025-276CL", "EPOCH": "2025-12-26T21:39:09.775008", "MEAN_MOTION": 15.1867376, "ECCENTRICITY": 0.000221, "INCLINATION": 97.4399, "RA_OF_ASC_NODE": 72.4485, "ARG_OF_PERICENTER": 205.5331, "MEAN_ANOMALY": 154.5794, "EPHEMERIS_TYPE": 0, "CLASSIFICATION_TYPE": "U", "NORAD_CAT_ID": 66748, "ELEMENT_SET_NO": 999, "REV_AT_EPOCH": 427, "BSTAR": 0.0012173242, "MEAN_MOTION_DOT": 0.00025235, "MEAN_MOTION_DDOT": 0}, "tle": {"line1": "1 66748U 25276CL  25360.90219647  .00025235  00000+0  12173-2 0  9999", "line2": "2 66748  97.4399  72.4485 0002210 205.5331 154.5794 15.18673760  4270"}}, "geometry": {"type": "Point", "coordinates": [-138.37341543043647, -75.83913010119309]}}, {"type": "Feature", "properties": {"norad_id": 66749, "name": "TRANSPORTER-15CM", "group": "last-30-days", "lat": -41.978884242910304, "lon": -113.95053367479078, "alt_km": 517.7267067990979, "timestamp": "2025-12-27T06:41:29.619065+00:00", "meta": {"OBJECT_NAME": "TRANSPORTER-15CM", "OBJECT_ID": "2025-276CM", "EPOCH": "2025-12-26T21:48:16.680096", "MEAN_MOTION": 15.17930831, "ECCENTRICITY": 0.00022239, "INCLINATION": 97.4393, "RA_OF_ASC_NODE": 72.4371, "ARG_OF_PERICENTER": 174.9542, "MEAN_ANOMALY": 185.1715, "EPHEMERIS_TYPE": 0, "CLASSIFICATION_TYPE": "U", "NORAD_CAT_ID": 66749, "ELEMENT_SET_NO": 999, "REV_AT_EPOCH": 427, "BSTAR": 0.0004373935, "MEAN_MOTION_DOT": 8.813e-05, "MEAN_MOTION_DDOT": 0}, "tle": {"line1": "1 66749U 25276CM  25360.90852639  .00008813  00000+0  43739-3 0  9990", "line2": "2 66749  97.4393  72.4371 0002223 174.9542 185.1715 15.17930831  4273"}}, "geometry": {"type": "Point", "coordinates": [-113.95053367479078, -41.978884242910304]}}, {"type": "Feature", "properties": {"norad_id": 66750, "name": "TRANSPORTER-15CN", "group": "last-30-days", "lat": -61.17819943265089, "lon": -120.91876864345672, "alt_km": 517.4544186835228, "timestamp": "2025-12-27T06:41:29.619075+00:00", "meta": {"OBJECT_NAME": "TRANSPORTER-15CN", "OBJECT_ID": "2025-276CN", "EPOCH": "2025-12-26T21:43:12.285984", "MEAN_MOTION": 15.18215054, "ECCENTRICITY": 0.00031655, "INCLINATION": 97.4419, "RA_OF_ASC_NODE": 72.4555, "ARG_OF_PERICENTER": 172.0716, "MEAN_ANOMALY": 188.0569, "EPHEMERIS_TYPE": 0, "CLASSIFICATION_TYPE": "U", "NORAD_CAT_ID": 66750, "ELEMENT_SET_NO": 999, "REV_AT_EPOCH": 427, "BSTAR": 0.0055641907, "MEAN_MOTION_DOT": 0.00115494, "MEAN_MOTION_DDOT": 0}, "tle": {"line1": "1 66750U 25276CN  25360.90500331  .00115494  00000+0  55642-2 0  9990", "line2": "2 66750  97.4419  72.4555 0003165 172.0716 188.0569 15.18215054  4279"}}, "geometry": {"type": "Point", "coordinates": [-120.91876864345672, -61.17819943265089]}}, {"type": "Feature", "properties": {"norad_id": 66751, "name": "ICEYE-X58", "group": "last-30-days", "lat": -38.85974939133649, "lon": -113.23602379598579, "alt_km": 517.2737900207785, "timestamp": "2025-12-27T06:41:29.619085+00:00", "meta": {"OBJECT_NAME": "ICEYE-X58", "OBJECT_ID": "2025-276CP", "EPOCH": "2025-12-26T21:49:04.708992", "MEAN_MOTION": 15.17839203, "ECCENTRICITY": 0.00027144, "INCLINATION": 97.4405, "RA_OF_ASC_NODE": 72.445, "ARG_OF_PERICENTER": 189.7895, "MEAN_ANOMALY": 170.3286, "EPHEMERIS_TYPE": 0, "CLASSIFICATION_TYPE": "U", "NORAD_CAT_ID": 66751, "ELEMENT_SET_NO": 999, "REV_AT_EPOCH": 427, "BSTAR": 0.00031877972, "MEAN_MOTION_DOT": 6.386e-05, "MEAN_MOTION_DDOT": 0}, "tle": {"line1": "1 66751U 25276CP  25360.90908228  .00006386  00000+0  31878-3 0  9993", "line2": "2 66751  97.4405  72.4450 0002714 189.7895 170.3286 15.17839203  4278"}}, "geometry": {"type": "Point", "coordinates": [-113.23602379598579, -38.85974939133649]}}, {"type": "Feature", "properties": {"norad_id": 66752, "name": "ICEYE-X59", "group": "last-30-days", "lat": -19.334834089250403, "lon": -109.82824753014141, "alt_km": 516.7471397936488, "timestamp": "2025-12-27T06:41:29.619098+00:00", "meta": {"OBJECT_NAME": "ICEYE-X59", "OBJECT_ID": "2025-276CQ", "EPOCH": "2025-12-26T21:54:12.971232", "MEAN_MOTION": 15.17645816, "ECCENTRICITY": 0.00020974, "INCLINATION": 97.4399, "RA_OF_ASC_NODE": 72.44, "ARG_OF_PERICENTER": 215.0917, "MEAN_ANOMALY": 145.0179, "EPHEMERIS_TYPE": 0, "CLASSIFICATION_TYPE": "U", "NORAD_CAT_ID": 66752, "ELEMENT_SET_NO": 999, "REV_AT_EPOCH": 427, "BSTAR": 0.00053592154, "MEAN_MOTION_DOT": 0.00010728, "MEAN_MOTION_DDOT": 0}, "tle": {"line1": "1 66752U 25276CQ  25360.91265013  .00010728  00000+0  53592-3 0  9995", "line2": "2 66752  97.4399  72.4400 0002097 215.0917 145.0179 15.17645816  4273"}}, "geometry": {"type": "Point", "coordinates": [-109.82824753014141, -19.334834089250403]}}, {"type": "Feature", "properties": {"norad_id": 66753, "name": "ICEYE-X60", "group": "last-30-days", "lat": 4.46559519705031, "lon": -106.62966656077936, "alt_km": 515.7639687515884, "timestamp": "2025-12-27T06:41:29.619111+00:00", "meta": {"OBJECT_NAME": "ICEYE-X60", "OBJECT_ID": "2025-276CR", "EPOCH": "2025-12-26T22:00:28.285920", "MEAN_MOTION": 15.17424224, "ECCENTRICITY": 0.00011674, "INCLINATION": 97.44, "RA_OF_ASC_NODE": 72.4302, "ARG_OF_PERICENTER": 242.6882, "MEAN_ANOMALY": 117.4233, "EPHEMERIS_TYPE": 0, "CLASSIFICATION_TYPE": "U", "NORAD_CAT_ID": 66753, "ELEMENT_SET_NO": 999, "REV_AT_EPOCH": 427, "BSTAR": 0.00050433965, "MEAN_MOTION_DOT": 0.00010027, "MEAN_MOTION_DDOT": 0}, "tle": {"line1": "1 66753U 25276CR  25360.91699405  .00010027  00000+0  50434-3 0  9996", "line2": "2 66753  97.4400  72.4302 0001167 242.6882 117.4233 15.17424224  4274"}}, "geometry": {"type": "Point", "coordinates": [-106.62966656077936, 4.46559519705031]}}, {"type": "Feature", "properties": {"norad_id": 66754, "name": "ICEYE-X61", "group": "last-30-days", "lat": -44.22326207685211, "lon": -114.50017713853441, "alt_km": 517.7639634244233, "timestamp": "2025-12-27T06:41:29.619121+00:00", "meta": {"OBJECT_NAME": "ICEYE-X61", "OBJECT_ID": "2025-276CS", "EPOCH": "2025-12-26T22:00:01.999584", "MEAN_MOTION": 15.17898024, "ECCENTRICITY": 0.00027064, "INCLINATION": 97.4397, "RA_OF_ASC_NODE": 72.4504, "ARG_OF_PERICENTER": 177.3315, "MEAN_ANOMALY": 229.7125, "EPHEMERIS_TYPE": 0, "CLASSIFICATION_TYPE": "U", "NORAD_CAT_ID": 66754, "ELEMENT_SET_NO": 999, "REV_AT_EPOCH": 545, "BSTAR": -0.0010888282, "MEAN_MOTION_DOT": -0.00022057, "MEAN_MOTION_DDOT": 0}, "tle": {"line1": "1 66754U 25276CS  25360.91668981 -.00022057  00000+0 -10888-2 0  9998", "line2": "2 66754  97.4397  72.4504 0002706 177.3315 229.7125 15.17898024  5450"}}, "geometry": {"type": "Point", "coordinates": [-114.50017713853441, -44.22326207685211]}}, {"type": "Feature", "properties": {"norad_id": 66755, "name": "ICEYE-X62", "group": "last-30-days", "lat": -18.149919839910552, "lon": -109.66133427306589, "alt_km": 517.0985870986624, "timestamp": "2025-12-27T06:41:29.619133+00:00", "meta": {"OBJECT_NAME": "ICEYE-X62", "OBJECT_ID": "2025-276CT", "EPOCH": "2025-12-26T15:34:46.209216", "MEAN_MOTION": 15.17663132, "ECCENTRICITY": 0.0001281, "INCLINATION": 97.4401, "RA_OF_ASC_NODE": 72.1752, "ARG_OF_PERICENTER": 205.1986, "MEAN_ANOMALY": 154.9185, "EPHEMERIS_TYPE": 0, "CLASSIFICATION_TYPE": "U", "NORAD_CAT_ID": 66755, "ELEMENT_SET_NO": 999, "REV_AT_EPOCH": 423, "BSTAR": 0.00043221008, "MEAN_MOTION_DOT": 8.641e-05, "MEAN_MOTION_DDOT": 0}, "tle": {"line1": "1 66755U 25276CT  25360.64914594  .00008641  00000+0  43221-3 0  9992", "line2": "2 66755  97.4401  72.1752 0001281 205.1986 154.9185 15.17663132  4230"}}, "geometry": {"type": "Point", "coordinates": [-109.66133427306589, -18.149919839910552]}}, {"type": "Feature", "properties": {"norad_id": 66756, "name": "TRANSPORTER-15CU", "group": "last-30-days", "lat": -51.52530561950602, "lon": -116.65245605777062, "alt_km": 518.7325092783612, "timestamp": "2025-12-27T06:41:29.619148+00:00", "meta": {"OBJECT_NAME": "TRANSPORTER-15CU", "OBJECT_ID": "2025-276CU", "EPOCH": "2025-12-26T21:45:44.004384", "MEAN_MOTION": 15.17990507, "ECCENTRICITY": 0.00018558, "INCLINATION": 97.4406, "RA_OF_ASC_NODE": 72.4469, "ARG_OF_PERICENTER": 150.3279, "MEAN_ANOMALY": 209.8061, "EPHEMERIS_TYPE": 0, "CLASSIFICATION_TYPE": "U", "NORAD_CAT_ID": 66756, "ELEMENT_SET_NO": 999, "REV_AT_EPOCH": 427, "BSTAR": 0.00035441511, "MEAN_MOTION_DOT": 7.139e-05, "MEAN_MOTION_DDOT": 0}, "tle": {"line1": "1 66756U 25276CU  25360.90675931  .00007139  00000+0  35442-3 0  9998", "line2": "2 66756  97.4406  72.4469 0001855 150.3279 209.8061 15.17990507  4273"}}, "geometry": {"type": "Point", "coordinates": [-116.65245605777062, -51.52530561950602]}}, {"type": "Feature", "properties": {"norad_id": 66757, "name": "TRANSPORTER-15CV", "group": "last-30-days", "lat": -60.25001325747719, "lon": -120.39554062606376, "alt_km": 518.9089819991068, "timestamp": "2025-12-27T06:41:29.619159+00:00", "meta": {"OBJECT_NAME": "TRANSPORTER-15CV", "OBJECT_ID": "2025-276CV", "EPOCH": "2025-12-26T23:18:11.598048", "MEAN_MOTION": 15.17836762, "ECCENTRICITY": 0.00039586, "INCLINATION": 97.4382, "RA_OF_ASC_NODE": 72.5157, "ARG_OF_PERICENTER": 309.2672, "MEAN_ANOMALY": 50.821, "EPHEMERIS_TYPE": 0, "CLASSIFICATION_TYPE": "U", "NORAD_CAT_ID": 66757, "ELEMENT_SET_NO": 999, "REV_AT_EPOCH": 428, "BSTAR": -0.010277728, "MEAN_MOTION_DOT": -0.00202306, "MEAN_MOTION_DDOT": 0}, "tle": {"line1": "1 66757U 25276CV  25360.97096757 -.00202306  00000+0 -10278-1 0  9992", "line2": "2 66757  97.4382  72.5157 0003958 309.2672  50.8210 15.17836762  4283"}}, "geometry": {"type": "Point", "coordinates": [-120.39554062606376, -60.25001325747719]}}]}